CCSDS_OMM_VERS,COMMENT,CREATION_DATE,ORIGINATOR,OBJECT_NAME,OBJECT_ID,CENTER_NAME,REF_FRAME,TIME_SYSTEM,MEAN_ELEMENT_THEORY,EPOCH,MEAN_MOTION,ECCENTRICITY,INCLINATION,RA_OF_ASC_NODE,ARG_OF_PERICENTER,MEAN_ANOMALY,EPHEMERIS_TYPE,CLASSIFICATION_TYPE,NORAD_CAT_ID,ELEMENT_SET_NO,REV_AT_EPOCH,BSTAR,MEAN_MOTION_DOT,MEAN_MOTION_DDOT,SEMIMAJOR_AXIS,PERIOD,APOAPSIS,PERIAPSIS,OBJECT_TYPE,RCS_SIZE,COUNTRY_CODE,LAUNCH_DATE,SITE,DECAY_DATE,FILE,GP_ID,TLE_LINE0,TLE_LINE1,TLE_LINE2
"2.0","GENERATED VIA SPACE-TRACK.ORG API","2020-07-25T02:37:17","18 SPCS","COSMOS 1818","1987-011A","EARTH","TEME","UTC","SGP4","2020-07-24T22:24:01.834848","14.31457427","0.00132910","65.0105","158.5021","279.6789","80.2794","0","U","17369","999","80062","0.00000411430000","-0.00000089","0.0000000000000","7165.000","100.596","796.388","777.342","PAYLOAD","LARGE","CIS","1987-02-01","TTMTR","","2790705","158170653","0 COSMOS 1818","1 17369U 87011A   20206.93335457 -.00000089 +00000-0 +41143-5 0  9998","2 17369 065.0105 158.5021 0013291 279.6789 080.2794 14.31457427800625"
"2.0","GENERATED VIA SPACE-TRACK.ORG API","2020-07-25T02:37:17","18 SPCS","IRIDIUM 136","2017-061H","EARTH","TEME","UTC","SGP4","2020-07-24T22:01:54.702336","14.34216415","0.00018930","86.3984","205.0447","86.7637","273.3776","0","U","42962","999","14620","0.00001614500000","0.00000065","0.0000000000000","7155.808","100.403","779.028","776.319","PAYLOAD","LARGE","US","2017-10-09","AFWTR","","2790705","158182932","0 IRIDIUM 136","1 42962U 17061H   20206.91799424 +.00000065 +00000-0 +16145-4 0  9995","2 42962 086.3984 205.0447 0001893 086.7637 273.3776 14.34216415146202"
"2.0","GENERATED VIA SPACE-TRACK.ORG API","2020-07-24T20:18:47","18 SPCS","COSMOS 1818","1987-011A","EARTH","TEME","UTC","SGP4","2020-07-24T14:01:00.681888","14.31457419","0.00132890","65.0105","159.4802","279.6756","80.2827","0","U","17369","999","80057","0.00000385290000","-0.00000090","0.0000000000000","7165.000","100.596","796.386","777.343","PAYLOAD","LARGE","CIS","1987-02-01","TTMTR","","2790543","158147044","0 COSMOS 1818","1 17369U 87011A   20206.58403567 -.00000090 +00000-0 +38529-5 0  9993","2 17369 065.0105 159.4802 0013289 279.6756 080.2827 14.31457419800575"
"2.0","GENERATED VIA SPACE-TRACK.ORG API","2020-07-24T22:26:10","18 SPCS","COSMOS 1818","1987-011A","EARTH","TEME","UTC","SGP4","2020-07-24T14:01:00.681888","14.31457419","0.00132890","65.0105","159.4802","279.6756","80.2827","0","U","17369","999","80085","0.00000385290000","-0.00000090","0.0000000000000","7165.000","100.596","796.386","777.343","PAYLOAD","LARGE","CIS","1987-02-01","TTMTR","","2790608","158163421","0 COSMOS 1818","1 17369U 87011A   20206.58403567 -.00000090  00000-0  38529-5 0  9993","2 17369  65.0105 159.4802 0013289 279.6756  80.2827 14.31457419800856"
"2.0","GENERATED VIA SPACE-TRACK.ORG API","2020-07-24T20:18:47","18 SPCS","IRIDIUM 136","2017-061H","EARTH","TEME","UTC","SGP4","2020-07-24T11:59:06.669600","14.34216359","0.00018940","86.3984","205.2195","86.6142","273.5271","0","U","42962","999","14614","0.00001456100000","0.00000061","0.0000000000000","7155.808","100.403","779.029","776.318","PAYLOAD","LARGE","US","2017-10-09","AFWTR","","2790543","158158668","0 IRIDIUM 136","1 42962U 17061H   20206.49938275 +.00000061 +00000-0 +14561-4 0  9993","2 42962 086.3984 205.2195 0001894 086.6142 273.5271 14.34216359146147"
"2.0","GENERATED VIA SPACE-TRACK.ORG API","2020-07-23T22:26:10","18 SPCS","IRIDIUM 136","2017-061H","EARTH","TEME","UTC","SGP4","2020-07-23T17:33:58.605984","14.34216303","0.00019000","86.3983","205.5400","86.2664","273.8749","0","U","42962","999","14603","0.00001573400000","0.00000064","0.0000000000000","7155.808","100.403","779.033","776.314","PAYLOAD","LARGE","US","2017-10-09","AFWTR","","2790061","158090569","0 IRIDIUM 136","1 42962U 17061H   20205.73192831  .00000064  00000-0  15734-4 0  9995","2 42962  86.3983 205.5400 0001900  86.2664 273.8749 14.34216303146031"
"2.0","GENERATED VIA SPACE-TRACK.ORG API","2020-07-24T02:16:13","18 SPCS","COSMOS 1818","1987-011A","EARTH","TEME","UTC","SGP4","2020-07-23T14:32:33.444096","14.31457466","0.00132720","65.0103","162.2191","279.5609","80.3976","0","U","17369","999","80043","0.00000051890000","-0.00000099","0.0000000000000","7165.000","100.596","796.374","777.355","PAYLOAD","LARGE","CIS","1987-02-01","TTMTR","","2790127","158096726","0 COSMOS 1818","1 17369U 87011A   20205.60594264 -.00000099 +00000-0 +51890-6 0  9996","2 17369 065.0103 162.2191 0013272 279.5609 080.3976 14.31457466800437"
"2.0","GENERATED VIA SPACE-TRACK.ORG API","2020-07-23T20:44:19","18 SPCS","IRIDIUM 136","2017-061H","EARTH","TEME","UTC","SGP4","2020-07-23T10:52:06.582144","14.34216299","0.00018980","86.3983","205.6566","86.0542","274.0870","0","U","42962","999","14599","0.00001682800000","0.00000067","0.0000000000000","7155.808","100.403","779.032","776.315","PAYLOAD","LARGE","US","2017-10-09","AFWTR","","2790028","158067317","0 IRIDIUM 136","1 42962U 17061H   20205.45285396 +.00000067 +00000-0 +16828-4 0  9991","2 42962 086.3983 205.6566 0001898 086.0542 274.0870 14.34216299145990"
"2.0","GENERATED VIA SPACE-TRACK.ORG API","2020-07-23T20:44:19","18 SPCS","COSMOS 1818","1987-011A","EARTH","TEME","UTC","SGP4","2020-07-23T07:50:08.520000","14.31457468","0.00132690","65.0103","163.0016","279.5175","80.4410","0","U","17369","999","80067","-0.00000081752000","-0.00000102","0.0000000000000","7165.000","100.596","796.372","777.357","PAYLOAD","LARGE","CIS","1987-02-01","TTMTR","","2790028","158054465","0 COSMOS 1818","1 17369U 87011A   20205.32648750 -.00000102 +00000-0 -81752-6 0  9991","2 17369 065.0103 163.0016 0013269 279.5175 080.4410 14.31457468800678"
"2.0","GENERATED VIA SPACE-TRACK.ORG API","2020-07-23T04:17:58","18 SPCS","COSMOS 1818","1987-011A","EARTH","TEME","UTC","SGP4","2020-07-22T21:46:31.130400","14.31457513","0.00132620","65.0102","164.1754","279.4835","80.4750","0","U","17369","999","80033","-0.00000343800000","-0.00000109","0.0000000000000","7165.000","100.596","796.367","777.362","PAYLOAD","LARGE","CIS","1987-02-01","TTMTR","","2789750","158028726","0 COSMOS 1818","1 17369U 87011A   20204.90730475 -.00000109 +00000-0 -34380-5 0  9991","2 17369 065.0102 164.1754 0013262 279.4835 080.4750 14.31457513800334"
"2.0","GENERATED VIA SPACE-TRACK.ORG API","2020-07-23T04:17:58","18 SPCS","IRIDIUM 136","2017-061H","EARTH","TEME","UTC","SGP4","2020-07-22T18:07:26.528160","14.34216150","0.00019080","86.3983","205.9479","85.5946","274.5467","0","U","42962","999","14589","0.00001145500000","0.00000052","0.0000000000000","7155.809","100.403","779.039","776.309","PAYLOAD","LARGE","US","2017-10-09","AFWTR","","2789750","158039591","0 IRIDIUM 136","1 42962U 17061H   20204.75516815 +.00000052 +00000-0 +11455-4 0  9991","2 42962 086.3983 205.9479 0001908 085.5946 274.5467 14.34216150145892"
"2.0","GENERATED VIA SPACE-TRACK.ORG API","2020-07-22T14:46:10","18 SPCS","IRIDIUM 136","2017-061H","EARTH","TEME","UTC","SGP4","2020-07-22T11:25:34.502592","14.34216145","0.00019070","86.3983","206.0644","85.3724","274.7690","0","U","42962","999","14585","0.00001214200000","0.00000054","0.0000000000000","7155.809","100.403","779.039","776.309","PAYLOAD","LARGE","US","2017-10-09","AFWTR","","2789444","157996584","0 IRIDIUM 136","1 42962U 17061H   20204.47609378  .00000054  00000-0  12142-4 0  9993","2 42962  86.3983 206.0644 0001907  85.3724 274.7690 14.34216145145859"
"2.0","GENERATED VIA SPACE-TRACK.ORG API","2020-07-22T19:01:38","18 SPCS","COSMOS 1818","1987-011A","EARTH","TEME","UTC","SGP4","2020-07-22T08:21:41.288256","14.31457501","0.00132510","65.0102","165.7405","279.4344","80.5242","0","U","17369","999","80025","-0.00000541450000","-0.00000115","0.0000000000000","7165.000","100.596","796.359","777.370","PAYLOAD","LARGE","CIS","1987-02-01","TTMTR","","2789600","158005069","0 COSMOS 1818","1 17369U 87011A   20204.34839454 -.00000115 +00000-0 -54145-5 0  9994","2 17369 065.0102 165.7405 0013251 279.4344 080.5242 14.31457501800252"
"2.0","GENERATED VIA SPACE-TRACK.ORG API","2020-07-22T06:36:10","18 SPCS","COSMOS 1818","1987-011A","EARTH","TEME","UTC","SGP4","2020-07-22T05:00:28.826208","14.31457510","0.00132440","65.0102","166.1318","279.4068","80.5519","0","U","17369","999","80051","-0.00000590450000","-0.00000116","0.0000000000000","7165.000","100.596","796.354","777.375","PAYLOAD","LARGE","CIS","1987-02-01","TTMTR","","2789294","157993891","0 COSMOS 1818","1 17369U 87011A   20204.20866697 -.00000116  00000-0 -59045-5 0  9993","2 17369  65.0102 166.1318 0013244 279.4068  80.5519 14.31457510800511"
"2.0","GENERATED VIA SPACE-TRACK.ORG API","2020-07-22T01:29:23","18 SPCS","IRIDIUM 136","2017-061H","EARTH","TEME","UTC","SGP4","2020-07-21T17:00:26.435520","14.34216046","0.00019170","86.3982","206.3849","84.9303","275.2112","0","U","42962","999","14574","0.00000964270000","0.00000047","0.0000000000000","7155.809","100.403","779.046","776.303","PAYLOAD","LARGE","US","2017-10-09","AFWTR","","2789023","157986389","0 IRIDIUM 136","1 42962U 17061H   20203.70863930 +.00000047 +00000-0 +96427-5 0  9995","2 42962 086.3982 206.3849 0001917 084.9303 275.2112 14.34216046145740"
"2.0","GENERATED VIA SPACE-TRACK.ORG API","2020-07-22T01:29:23","18 SPCS","COSMOS 1818","1987-011A","EARTH","TEME","UTC","SGP4","2020-07-21T15:35:38.988384","14.31457511","0.00132300","65.0101","167.6968","279.3677","80.5911","0","U","17369","999","80015","-0.00000671560000","-0.00000118","0.0000000000000","7165.000","100.596","796.344","777.385","PAYLOAD","LARGE","CIS","1987-02-01","TTMTR","","2789023","157972686","0 COSMOS 1818","1 17369U 87011A   20203.64975681 -.00000118 +00000-0 -67156-5 0  9998","2 17369 065.0101 167.6968 0013230 279.3677 080.5911 14.31457511800154"
